OBJECT_NAME,OBJECT_ID,EPOCH,MEAN_MOTION,ECCENTRICITY,INCLINATION,RA_OF_ASC_NODE,ARG_OF_PERICENTER,MEAN_ANOMALY,EPHEMERIS_TYPE,CLASSIFICATION_TYPE,NORAD_CAT_ID,ELEMENT_SET_NO,REV_AT_EPOCH,BSTAR,MEAN_MOTION_DOT,MEAN_MOTION_DDOT
ONEWEB-0365,2021-090N,2026-06-03T11:07:57.617184,13.19727098,.00017191,87.9168,307.7008,94.1665,265.9665,0,U,49291,999,22461,.10922527E-3,.57E-6,0
ONEWEB-0366,2021-090P,2026-06-02T19:42:37.798848,13.14501275,.00019275,87.8947,292.5705,99.6077,260.5271,0,U,49292,999,22567,.27889797E-3,.116E-5,0
ONEWEB-0367,2021-090Q,2026-06-03T07:11:29.816160,13.20772266,.00026573,87.9212,277.1985,169.5711,190.5477,0,U,49293,999,22799,-.35719433E-2,-.1439E-4,0
ONEWEB-0368,2021-090R,2026-06-03T06:33:55.210752,13.20785570,.00022429,87.9195,277.2232,79.3549,280.7836,0,U,49294,999,22914,.95872017E-2,.3914E-4,0
ONEWEB-0369,2021-090S,2026-06-03T11:01:08.490720,13.19726484,.00017661,87.9157,307.7104,93.1305,267.0030,0,U,49295,999,22460,.66739318E-4,.4E-6,0
ONEWEB-0370,2021-090T,2026-06-03T07:24:50.470272,13.20773853,.00019869,87.9191,277.2059,109.7151,250.4197,0,U,49296,999,22803,.66775208E-4,.4E-6,0
ONEWEB-0371,2021-090U,2026-06-03T11:12:30.070944,13.19727326,.00017495,87.9165,307.7000,98.3258,261.8073,0,U,49297,999,22464,.7227665E-4,.42E-6,0
ONEWEB-0372,2021-090V,2026-06-03T07:10:05.892384,13.20770812,.00018919,87.9205,277.2086,104.2796,255.8548,0,U,49298,999,22800,-.39167821E-4,-.3E-7,0
ONEWEB-0373,2021-090W,2026-06-03T07:46:40.132704,13.20769992,.00020238,87.9181,277.2051,103.8941,256.2417,0,U,49299,999,22919,.27253506E-4,.24E-6,0
ONEWEB-0374,2021-090X,2026-06-03T08:11:37.989024,13.14503472,.00024197,87.8959,292.4572,90.1889,269.9518,0,U,49300,999,22574,-.22224965E-3,-.7E-6,0
ONEWEB-0375,2021-090Y,2026-06-03T07:29:42.770976,13.20771552,.00024177,87.9190,277.1986,93.6208,266.5202,0,U,49301,999,22869,.87129607E-4,.48E-6,0
ONEWEB-0376,2021-090Z,2026-06-03T11:10:13.689408,13.19724178,.00016467,87.9169,307.6998,93.4587,266.6734,0,U,49302,999,22464,.86892232E-4,.48E-6,0
ONEWEB-0377,2021-090AA,2026-06-03T07:10:31.474560,13.20771803,.00021139,87.9192,277.2029,101.7081,258.4290,0,U,49303,999,22868,.24499769E-3,.113E-5,0
ONEWEB-0378,2021-090AB,2026-06-03T07:39:35.482752,13.20767903,.00018567,87.9177,277.2053,108.7633,251.3701,0,U,49304,999,22795,-.15296481E-2,-.609E-5,0
ONEWEB-0379,2021-090AC,2026-06-03T08:04:46.228224,13.14502468,.00019104,87.8955,292.4687,95.6194,264.5154,0,U,49305,999,22574,-.30363332E-3,-.1E-5,0
ONEWEB-0380,2021-090AD,2026-06-03T11:05:41.608896,13.19724989,.00020425,87.9158,307.7068,97.7613,262.3751,0,U,49306,999,22461,.62448542E-4,.38E-6,0
ONEWEB-0381,2021-090AE,2026-06-03T07:05:28.516416,13.20773083,.00021509,87.9193,277.2084,94.1801,265.9578,0,U,49307,999,22799,.39763914E-3,.175E-5,0
ONEWEB-0382,2021-090AF,2026-06-03T06:46:02.527680,13.20772218,.00021269,87.9185,277.2061,93.3571,266.7805,0,U,49308,999,22798,.13197329E-3,.67E-6,0
ONEWEB-0383,2021-090AG,2026-06-03T07:55:37.564032,13.14503945,.00016844,87.8966,292.4612,98.8966,261.2354,0,U,49309,999,22577,.20394543E-3,.88E-6,0
ONEWEB-0384,2021-090AH,2026-06-03T21:03:00.927648,13.20811480,.00022004,87.9188,277.1314,88.8912,271.2473,0,U,49310,999,22807,-.10209665E-3,-.29E-6,0
ONEWEB-0385,2021-090AJ,2026-06-03T06:36:23.220864,13.20771805,.00021371,87.9177,277.2141,92.3410,267.7968,0,U,49311,999,22796,.11959688E-3,.62E-6,0
ONEWEB-0386,2021-090AK,2026-06-03T07:00:37.285344,13.20773245,.00020136,87.9201,277.1982,96.4790,263.6573,0,U,49312,999,22798,.50851642E-3,.22E-5,0
ONEWEB-0387,2021-090AL,2026-06-03T06:38:48.667488,13.20772837,.00023059,87.9176,277.2270,102.5909,257.5483,0,U,49313,999,22798,.12283199E-3,.63E-6,0
ONEWEB-0388,2021-090AM,2026-06-03T10:58:52.372704,13.19726263,.00019331,87.9157,307.7060,92.0081,268.1273,0,U,49314,999,22460,.41994744E-4,.3E-6,0
ONEWEB-0389,2021-132A,2026-06-03T14:32:49.950816,13.17647842,.00022019,87.9142,8.5701,88.6248,271.5136,0,U,50469,999,21629,.12659736E-3,.62E-6,0
ONEWEB-0390,2021-132B,2026-06-03T14:35:15.703296,13.17647623,.00018542,87.9144,8.5707,99.1691,260.9650,0,U,50470,999,21629,.83823104E-4,.45E-6,0
ONEWEB-0391,2021-132C,2026-06-03T14:37:41.564640,13.17648087,.00026424,87.9144,8.5796,97.0251,263.1181,0,U,50471,999,21629,.10819386E-3,.55E-6,0
ONEWEB-0392,2021-132D,2026-06-03T15:21:26.978976,13.17650080,.00030057,87.9145,8.5400,101.9170,258.2299,0,U,50472,999,21633,.45959657E-4,.31E-6,0
ONEWEB-0393,2021-132E,2026-06-03T14:46:12.982656,13.17649075,.00020037,87.9144,8.5643,88.3156,271.8205,0,U,50473,999,21632,-.67214841E-4,-.13E-6,0
ONEWEB-0394,2021-132F,2026-06-03T12:23:19.811328,13.18688565,.00020626,87.9165,338.1623,88.1912,271.9456,0,U,50474,999,21979,.59764797E-4,.36E-6,0
